{"type": "FeatureCollection", "features": [ {"type": "Feature", "properties": {"norad_id": 33153, "name": "INTELSAT 25 (IS-25)", "group": "intelsat", "lat": 1.8646424147464224, "lon": -153.17235562276994, "alt_km": 35777.69049461954, "timestamp": "2025-12-27T09:28:56.134807+00:00", "meta": {"OBJECT_NAME": "INTELSAT 25 (IS-25)", "OBJECT_ID": "2008-034A", "EPOCH": "2025-12-27T02:23:21.689376", "MEAN_MOTION": 1.00271146, "ECCENTRICITY": 0.0005021, "INCLINATION": 2.2627, "RA_OF_ASC_NODE": 82.491, "ARG_OF_PERICENTER": 191.1841, "MEAN_ANOMALY": 186.5053, "EPHEMERIS_TYPE": 0, "CLASSIFICATION_TYPE": "U", "NORAD_CAT_ID": 33153, "ELEMENT_SET_NO": 999, "REV_AT_EPOCH": 6397, "BSTAR": 0, "MEAN_MOTION_DOT": -2.02e-06, "MEAN_MOTION_DDOT": 0}, "tle": {"line1": "1 33153U 08034A   25361.09955659 -.00000202  00000+0  00000+0 0  9998", "line2": "2 33153   2.2627  82.4910 0005021 191.1841 186.5053  1.00271146 63978"}}, "geometry": {"type": "Point", "coordinates": [-153.17235562276994, 1.8646424147464224]}}, {"type": "Feature", "properties": {"norad_id": 33376, "name": "GALAXY 19 (G-19)", "group": "intelsat", "lat": -0.012546636011422098, "lon": 141.33037540204774, "alt_km": 35795.6607406615, "timestamp": "2025-12-27T09:28:56.134820+00:00", "meta": {"OBJECT_NAME": "GALAXY 19 (G-19)", "OBJECT_ID": "2008-045A", "EPOCH": "2025-12-27T04:20:38.793120", "MEAN_MOTION": 1.00271485, "ECCENTRICITY": 0.000285, "INCLINATION": 0.0366, "RA_OF_ASC_NODE": 265.6699, "ARG_OF_PERICENTER": 17.5687, "MEAN_ANOMALY": 140.8364, "EPHEMERIS_TYPE": 0, "CLASSIFICATION_TYPE": "U", "NORAD_CAT_ID": 33376, "ELEMENT_SET_NO": 999, "REV_AT_EPOCH": 6317, "BSTAR": 0, "MEAN_MOTION_DOT": -1.17e-06, "MEAN_MOTION_DDOT": 0}, "tle": {"line1": "1 33376U 08045A   25361.18100455 -.00000117  00000+0  00000+0 0  9998", "line2": "2 33376   0.0366 265.6699 0002850  17.5687 140.8364  1.00271485 63172"}}, "geometry": {"type": "Point", "coordinates": [141.33037540204774, -0.012546636011422098]}}, {"type": "Feature", "properties": {"norad_id": 35493, "name": "FM-5", "group": "intelsat", "lat": 0.000734601700897716, "lon": 152.1862686807938, "alt_km": 35783.547650990266, "timestamp": "2025-12-27T09:28:56.134832+00:00", "meta": {"OBJECT_NAME": "FM-5", "OBJECT_ID": "2009-034A", "EPOCH": "2025-12-25T21:13:02.840160", "MEAN_MOTION": 1.00269478, "ECCENTRICITY": 7.9e-05, "INCLINATION": 0.0148, "RA_OF_ASC_NODE": 303.8545, "ARG_OF_PERICENTER": 217.7513, "MEAN_ANOMALY": 165.1409, "EPHEMERIS_TYPE": 0, "CLASSIFICATION_TYPE": "U", "NORAD_CAT_ID": 35493, "ELEMENT_SET_NO": 999, "REV_AT_EPOCH": 4490, "BSTAR": 0, "MEAN_MOTION_DOT": -1.78e-06, "MEAN_MOTION_DDOT": 0}, "tle": {"line1": "1 35493U 09034A   25359.88406065 -.00000178  00000+0  00000+0 0  9996", "line2": "2 35493   0.0148 303.8545 0000790 217.7513 165.1409  1.00269478 44909"}}, "geometry": {"type": "Point", "coordinates": [152.1862686807938, 0.000734601700897716]}}, {"type": "Feature", "properties": {"norad_id": 36097, "name": "INTELSAT 14 (IS-14)", "group": "intelsat", "lat": 0.008746395939022667, "lon": -166.67767862541555, "alt_km": 35786.3739058502, "timestamp": "2025-12-27T09:28:56.134844+00:00", "meta": {"OBJECT_NAME": "INTELSAT 14 (IS-14)", "OBJECT_ID": "2009-064A", "EPOCH": "2025-12-27T02:30:53.462880", "MEAN_MOTION": 1.00271432, "ECCENTRICITY": 0.0002695, "INCLINATION": 0.0147, "RA_OF_ASC_NODE": 44.1787, "ARG_OF_PERICENTER": 240.036, "MEAN_ANOMALY": 164.3491, "EPHEMERIS_TYPE": 0, "CLASSIFICATION_TYPE": "U", "NORAD_CAT_ID": 36097, "ELEMENT_SET_NO": 999, "REV_AT_EPOCH": 5888, "BSTAR": 0, "MEAN_MOTION_DOT": -2.51e-06, "MEAN_MOTION_DDOT": 0}, "tle": {"line1": "1 36097U 09064A   25361.10478545 -.00000251  00000+0  00000+0 0  9992", "line2": "2 36097   0.0147  44.1787 0002695 240.0360 164.3491  1.00271432 58884"}}, "geometry": {"type": "Point", "coordinates": [-166.67767862541555, 0.008746395939022667]}}, {"type": "Feature", "properties": {"norad_id": 36106, "name": "INTELSAT 15 (IS-15)", "group": "intelsat", "lat": -0.02971449968009886, "lon": -36.485414146964075, "alt_km": 35778.16412014387, "timestamp": "2025-12-27T09:28:56.134855+00:00", "meta": {"OBJECT_NAME": "INTELSAT 15 (IS-15)", "OBJECT_ID": "2009-067A", "EPOCH": "2025-12-26T18:35:08.612736", "MEAN_MOTION": 1.00269968, "ECCENTRICITY": 0.00024632, "INCLINATION": 0.0172, "RA_OF_ASC_NODE": 56.5413, "ARG_OF_PERICENTER": 231.3991, "MEAN_ANOMALY": 171.5093, "EPHEMERIS_TYPE": 0, "CLASSIFICATION_TYPE": "U", "NORAD_CAT_ID": 36106, "ELEMENT_SET_NO": 999, "REV_AT_EPOCH": 3950, "BSTAR": 0, "MEAN_MOTION_DOT": -1.63e-06, "MEAN_MOTION_DDOT": 0}, "tle": {"line1": "1 36106U 09067A   25360.77440524 -.00000163  00000+0  00000+0 0  9996", "line2": "2 36106   0.0172  56.5413 0002463 231.3991 171.5093  1.00269968 39509"}}, "geometry": {"type": "Point", "coordinates": [-36.485414146964075, -0.02971449968009886]}}, {"type": "Feature", "properties": {"norad_id": 36131, "name": "DIRECTV 12", "group": "intelsat", "lat": 0.013492577745126773, "lon": 135.65297349317126, "alt_km": 35787.847245922545, "timestamp": "2025-12-27T09:28:56.134867+00:00", "meta": {"OBJECT_NAME": "DIRECTV 12", "OBJECT_ID": "2009-075A", "EPOCH": "2025-12-25T14:17:27.635136", "MEAN_MOTION": 1.00273448, "ECCENTRICITY": 5.26e-05, "INCLINATION": 0.0362, "RA_OF_ASC_NODE": 165.2057, "ARG_OF_PERICENTER": 147.3669, "MEAN_ANOMALY": 253.4343, "EPHEMERIS_TYPE": 0, "CLASSIFICATION_TYPE": "U", "NORAD_CAT_ID": 36131, "ELEMENT_SET_NO": 999, "REV_AT_EPOCH": 4481, "BSTAR": 0, "MEAN_MOTION_DOT": -8.2e-07, "MEAN_MOTION_DDOT": 0}, "tle": {"line1": "1 36131U 09075A   25359.59545874 -.00000082  00000+0  00000+0 0  9995", "line2": "2 36131   0.0362 165.2057 0000526 147.3669 253.4343  1.00273448 44812"}}, "geometry": {"type": "Point", "coordinates": [135.65297349317126, 0.013492577745126773]}}, {"type": "Feature", "properties": {"norad_id": 36397, "name": "INTELSAT 16 (IS-16)", "group": "intelsat", "lat": 0.014381330678133164, "lon": 162.1479301494877, "alt_km": 35789.39750372188, "timestamp": "2025-12-27T09:28:56.134879+00:00", "meta": {"OBJECT_NAME": "INTELSAT 16 (IS-16)", "OBJECT_ID": "2010-006A", "EPOCH": "2025-12-27T03:51:57.013056", "MEAN_MOTION": 1.00271397, "ECCENTRICITY": 0.0002051, "INCLINATION": 0.0092, "RA_OF_ASC_NODE": 17.1566, "ARG_OF_PERICENTER": 256.51, "MEAN_ANOMALY": 164.034, "EPHEMERIS_TYPE": 0, "CLASSIFICATION_TYPE": "U", "NORAD_CAT_ID": 36397, "ELEMENT_SET_NO": 999, "REV_AT_EPOCH": 5792, "BSTAR": 0, "MEAN_MOTION_DOT": -2.22e-06, "MEAN_MOTION_DDOT": 0}, "tle": {"line1": "1 36397U 10006A   25361.16107654 -.00000222  00000+0  00000+0 0  9997", "line2": "2 36397   0.0092  17.1566 0002051 256.5100 164.0340  1.00271397 57925"}}, "geometry": {"type": "Point", "coordinates": [162.1479301494877, 0.014381330678133164]}}, {"type": "Feature", "properties": {"norad_id": 37185, "name": "XM-5", "group": "intelsat", "lat": -0.015618584955718696, "lon": 123.14927660541804, "alt_km": 35778.507147844204, "timestamp": "2025-12-27T09:28:56.134891+00:00", "meta": {"OBJECT_NAME": "XM-5", "OBJECT_ID": "2010-053A", "EPOCH": "2025-12-26T06:45:38.542176", "MEAN_MOTION": 1.00272159, "ECCENTRICITY": 0.0002039, "INCLINATION": 0.0641, "RA_OF_ASC_NODE": 269.394, "ARG_OF_PERICENTER": 243.8981, "MEAN_ANOMALY": 287.9534, "EPHEMERIS_TYPE": 0, "CLASSIFICATION_TYPE": "U", "NORAD_CAT_ID": 37185, "ELEMENT_SET_NO": 999, "REV_AT_EPOCH": 5575, "BSTAR": 0, "MEAN_MOTION_DOT": -1e-08, "MEAN_MOTION_DDOT": 0}, "tle": {"line1": "1 37185U 10053A   25360.28169609 -.00000001  00000+0  00000+0 0  9990", "line2": "2 37185   0.0641 269.3940 0002039 243.8981 287.9534  1.00272159 55756"}}, "geometry": {"type": "Point", "coordinates": [123.14927660541804, -0.015618584955718696]}}, {"type": "Feature", "properties": {"norad_id": 37238, "name": "INTELSAT 17 (IS-17)", "group": "intelsat", "lat": -0.03650992506804863, "lon": -55.670937081932536, "alt_km": 35773.56561965949, "timestamp": "2025-12-27T09:28:56.134903+00:00", "meta": {"OBJECT_NAME": "INTELSAT 17 (IS-17)", "OBJECT_ID": "2010-065B", "EPOCH": "2025-12-27T03:02:35.428416", "MEAN_MOTION": 1.00272098, "ECCENTRICITY": 0.0002945, "INCLINATION": 0.0312, "RA_OF_ASC_NODE": 75.3085, "ARG_OF_PERICENTER": 225.7235, "MEAN_ANOMALY": 266.4513, "EPHEMERIS_TYPE": 0, "CLASSIFICATION_TYPE": "U", "NORAD_CAT_ID": 37238, "ELEMENT_SET_NO": 999, "REV_AT_EPOCH": 5152, "BSTAR": 0, "MEAN_MOTION_DOT": 0, "MEAN_MOTION_DDOT": 0}, "tle": {"line1": "1 37238U 10065B   25361.12679894  .00000000  00000+0  00000+0 0  9996", "line2": "2 37238   0.0312  75.3085 0002945 225.7235 266.4513  1.00272098 51524"}}, "geometry": {"type": "Point", "coordinates": [-55.670937081932536, -0.03650992506804863]}}, {"type": "Feature", "properties": {"norad_id": 37392, "name": "INTELSAT 28 (IS-28)", "group": "intelsat", "lat": 1.152047089192728, "lon": -153.3851323958749, "alt_km": 35779.89759931005, "timestamp": "2025-12-27T09:28:56.134915+00:00", "meta": {"OBJECT_NAME": "INTELSAT 28 (IS-28)", "OBJECT_ID": "2011-016A", "EPOCH": "2025-12-27T02:34:45.592032", "MEAN_MOTION": 1.00271118, "ECCENTRICITY": 0.000386, "INCLINATION": 1.3598, "RA_OF_ASC_NODE": 84.8973, "ARG_OF_PERICENTER": 189.2455, "MEAN_ANOMALY": 188.6848, "EPHEMERIS_TYPE": 0, "CLASSIFICATION_TYPE": "U", "NORAD_CAT_ID": 37392, "ELEMENT_SET_NO": 999, "REV_AT_EPOCH": 5156, "BSTAR": 0, "MEAN_MOTION_DOT": -2.03e-06, "MEAN_MOTION_DDOT": 0}, "tle": {"line1": "1 37392U 11016A   25361.10747213 -.00000203  00000+0  00000+0 0  9999", "line2": "2 37392   1.3598  84.8973 0003860 189.2455 188.6848  1.00271118 51563"}}, "geometry": {"type": "Point", "coordinates": [-153.3851323958749, 1.152047089192728]}}]}